{"type": "FeatureCollection", "features": [ {"type": "Feature", "properties": {"norad_id": 43207, "name": "BEIDOU-3 M4 (C22)", "group": "beidou", "lat": -56.36580222629193, "lon": -14.67850602528029, "alt_km": 21536.445358053505, "timestamp": "2025-12-08T10:52:03.212734+00:00", "meta": {"OBJECT_NAME": "BEIDOU-3 M4 (C22)", "OBJECT_ID": "2018-018A", "EPOCH": "2025-12-02T03:19:43.852800", "MEAN_MOTION": 1.86230706, "ECCENTRICITY": 0.00040749, "INCLINATION": 56.4768, "RA_OF_ASC_NODE": 69.6557, "ARG_OF_PERICENTER": 15.1369, "MEAN_ANOMALY": 344.8773, "EPHEMERIS_TYPE": 0, "CLASSIFICATION_TYPE": "U", "NORAD_CAT_ID": 43207, "ELEMENT_SET_NO": 999, "REV_AT_EPOCH": 5307, "BSTAR": 0, "MEAN_MOTION_DOT": -4.5e-07, "MEAN_MOTION_DDOT": 0}, "tle": {"line1": "1 43207U 18018A   25336.13870200 -.00000045  00000+0  00000+0 0  9992", "line2": "2 43207  56.4768  69.6557 0004074  15.1369 344.8773  1.86230706 53076"}}, "geometry": {"type": "Point", "coordinates": [-14.67850602528029, -56.36580222629193]}}, {"type": "Feature", "properties": {"norad_id": 43208, "name": "BEIDOU-3 M3 (C21)", "group": "beidou", "lat": -38.70558622753639, "lon": -78.51382225551133, "alt_km": 21532.48064383679, "timestamp": "2025-12-08T10:52:03.212746+00:00", "meta": {"OBJECT_NAME": "BEIDOU-3 M3 (C21)", "OBJECT_ID": "2018-018B", "EPOCH": "2025-12-03T06:41:57.693408", "MEAN_MOTION": 1.86230862, "ECCENTRICITY": 0.0006282, "INCLINATION": 56.4772, "RA_OF_ASC_NODE": 69.6218, "ARG_OF_PERICENTER": 317.5873, "MEAN_ANOMALY": 42.3668, "EPHEMERIS_TYPE": 0, "CLASSIFICATION_TYPE": "U", "NORAD_CAT_ID": 43208, "ELEMENT_SET_NO": 999, "REV_AT_EPOCH": 5309, "BSTAR": 0, "MEAN_MOTION_DOT": -4.9e-07, "MEAN_MOTION_DDOT": 0}, "tle": {"line1": "1 43208U 18018B   25337.27913997 -.00000049  00000+0  00000+0 0  9994", "line2": "2 43208  56.4772  69.6218 0006282 317.5873  42.3668  1.86230862 53096"}}, "geometry": {"type": "Point", "coordinates": [-78.51382225551133, -38.70558622753639]}}, {"type": "Feature", "properties": {"norad_id": 43245, "name": "BEIDOU-3 M9 (C29)", "group": "beidou", "lat": 53.90216944326943, "lon": 25.976524218904128, "alt_km": 21526.485152201072, "timestamp": "2025-12-08T10:52:03.212758+00:00", "meta": {"OBJECT_NAME": "BEIDOU-3 M9 (C29)", "OBJECT_ID": "2018-029A", "EPOCH": "2025-12-07T06:05:41.943552", "MEAN_MOTION": 1.86227905, "ECCENTRICITY": 0.00016267, "INCLINATION": 54.3707, "RA_OF_ASC_NODE": 306.6586, "ARG_OF_PERICENTER": 277.0016, "MEAN_ANOMALY": 82.965, "EPHEMERIS_TYPE": 0, "CLASSIFICATION_TYPE": "U", "NORAD_CAT_ID": 43245, "ELEMENT_SET_NO": 999, "REV_AT_EPOCH": 5232, "BSTAR": 0, "MEAN_MOTION_DOT": -7e-07, "MEAN_MOTION_DDOT": 0}, "tle": {"line1": "1 43245U 18029A   25341.25395768 -.00000070  00000+0  00000+0 0  9994", "line2": "2 43245  54.3707 306.6586 0001626 277.0016  82.9650  1.86227905 52320"}}, "geometry": {"type": "Point", "coordinates": [25.976524218904128, 53.90216944326943]}}, {"type": "Feature", "properties": {"norad_id": 43246, "name": "BEIDOU-3 M10 (C30)", "group": "beidou", "lat": 40.32552630563978, "lon": 89.15115702381077, "alt_km": 21530.130281083435, "timestamp": "2025-12-08T10:52:03.212769+00:00", "meta": {"OBJECT_NAME": "BEIDOU-3 M10 (C30)", "OBJECT_ID": "2018-029B", "EPOCH": "2025-12-07T04:32:29.911776", "MEAN_MOTION": 1.86228892, "ECCENTRICITY": 0.00040611, "INCLINATION": 54.3683, "RA_OF_ASC_NODE": 306.6886, "ARG_OF_PERICENTER": 0.524, "MEAN_ANOMALY": 359.4613, "EPHEMERIS_TYPE": 0, "CLASSIFICATION_TYPE": "U", "NORAD_CAT_ID": 43246, "ELEMENT_SET_NO": 999, "REV_AT_EPOCH": 5230, "BSTAR": 0, "MEAN_MOTION_DOT": -7e-07, "MEAN_MOTION_DDOT": 0}, "tle": {"line1": "1 43246U 18029B   25341.18923509 -.00000070  00000+0  00000+0 0  9997", "line2": "2 43246  54.3683 306.6886 0004061   0.5240 359.4613  1.86228892 52306"}}, "geometry": {"type": "Point", "coordinates": [89.15115702381077, 40.32552630563978]}}, {"type": "Feature", "properties": {"norad_id": 43539, "name": "BEIDOU-2 IGSO-7 (C16)", "group": "beidou", "lat": -5.04048177997162, "lon": -11.77326923671385, "alt_km": 35533.94508881992, "timestamp": "2025-12-08T10:52:03.212781+00:00", "meta": {"OBJECT_NAME": "BEIDOU-2 IGSO-7 (C16)", "OBJECT_ID": "2018-057A", "EPOCH": "2025-12-07T10:43:46.663104", "MEAN_MOTION": 1.0025846, "ECCENTRICITY": 0.00925092, "INCLINATION": 55.1739, "RA_OF_ASC_NODE": 164.7176, "ARG_OF_PERICENTER": 235.2145, "MEAN_ANOMALY": 308.6901, "EPHEMERIS_TYPE": 0, "CLASSIFICATION_TYPE": "U", "NORAD_CAT_ID": 43539, "ELEMENT_SET_NO": 999, "REV_AT_EPOCH": 2720, "BSTAR": 0, "MEAN_MOTION_DOT": -6.7e-07, "MEAN_MOTION_DDOT": 0}, "tle": {"line1": "1 43539U 18057A   25341.44706786 -.00000067  00000+0  00000+0 0  9994", "line2": "2 43539  55.1739 164.7176 0092509 235.2145 308.6901  1.00258460 27209"}}, "geometry": {"type": "Point", "coordinates": [-11.77326923671385, -5.04048177997162]}}, {"type": "Feature", "properties": {"norad_id": 43581, "name": "BEIDOU-3 M5 (C23)", "group": "beidou", "lat": -18.839603215290843, "lon": 174.47748334213378, "alt_km": 21525.198914161363, "timestamp": "2025-12-08T10:52:03.212793+00:00", "meta": {"OBJECT_NAME": "BEIDOU-3 M5 (C23)", "OBJECT_ID": "2018-062A", "EPOCH": "2025-12-07T09:56:06.121536", "MEAN_MOTION": 1.86228654, "ECCENTRICITY": 0.00021243, "INCLINATION": 54.089, "RA_OF_ASC_NODE": 188.8244, "ARG_OF_PERICENTER": 353.2088, "MEAN_ANOMALY": 6.859, "EPHEMERIS_TYPE": 0, "CLASSIFICATION_TYPE": "U", "NORAD_CAT_ID": 43581, "ELEMENT_SET_NO": 999, "REV_AT_EPOCH": 5006, "BSTAR": 0, "MEAN_MOTION_DOT": 5.9e-07, "MEAN_MOTION_DDOT": 0}, "tle": {"line1": "1 43581U 18062A   25341.41395974  .00000059  00000+0  00000+0 0  9997", "line2": "2 43581  54.0890 188.8244 0002124 353.2088   6.8590  1.86228654 50063"}}, "geometry": {"type": "Point", "coordinates": [174.47748334213378, -18.839603215290843]}}, {"type": "Feature", "properties": {"norad_id": 43582, "name": "BEIDOU-3 M6 (C24)", "group": "beidou", "lat": 48.83566155223001, "lon": -115.21375926267912, "alt_km": 21502.279703863165, "timestamp": "2025-12-08T10:52:03.212804+00:00", "meta": {"OBJECT_NAME": "BEIDOU-3 M6 (C24)", "OBJECT_ID": "2018-062B", "EPOCH": "2025-12-06T17:45:46.056960", "MEAN_MOTION": 1.86229666, "ECCENTRICITY": 0.00077578, "INCLINATION": 54.0886, "RA_OF_ASC_NODE": 188.8365, "ARG_OF_PERICENTER": 46.2295, "MEAN_ANOMALY": 313.9106, "EPHEMERIS_TYPE": 0, "CLASSIFICATION_TYPE": "U", "NORAD_CAT_ID": 43582, "ELEMENT_SET_NO": 999, "REV_AT_EPOCH": 5005, "BSTAR": 0, "MEAN_MOTION_DOT": 6.8e-07, "MEAN_MOTION_DDOT": 0}, "tle": {"line1": "1 43582U 18062B   25340.74011640  .00000068  00000+0  00000+0 0  9998", "line2": "2 43582  54.0886 188.8365 0007757  46.2295 313.9106  1.86229666 50057"}}, "geometry": {"type": "Point", "coordinates": [-115.21375926267912, 48.83566155223001]}}, {"type": "Feature", "properties": {"norad_id": 43602, "name": "BEIDOU-3 M12 (C26)", "group": "beidou", "lat": 49.52918098406499, "lon": -50.33443604238789, "alt_km": 21513.4486164994, "timestamp": "2025-12-08T10:52:03.212815+00:00", "meta": {"OBJECT_NAME": "BEIDOU-3 M12 (C26)", "OBJECT_ID": "2018-067A", "EPOCH": "2025-12-07T05:09:21.328416", "MEAN_MOTION": 1.86227676, "ECCENTRICITY": 0.00091602, "INCLINATION": 54.1831, "RA_OF_ASC_NODE": 187.5507, "ARG_OF_PERICENTER": 40.7736, "MEAN_ANOMALY": 319.3651, "EPHEMERIS_TYPE": 0, "CLASSIFICATION_TYPE": "U", "NORAD_CAT_ID": 43602, "ELEMENT_SET_NO": 999, "REV_AT_EPOCH": 4954, "BSTAR": 0, "MEAN_MOTION_DOT": 6.2e-07, "MEAN_MOTION_DDOT": 0}, "tle": {"line1": "1 43602U 18067A   25341.21483019  .00000062  00000+0  00000+0 0  9996", "line2": "2 43602  54.1831 187.5507 0009160  40.7736 319.3651  1.86227676 49540"}}, "geometry": {"type": "Point", "coordinates": [-50.33443604238789, 49.52918098406499]}}, {"type": "Feature", "properties": {"norad_id": 43603, "name": "BEIDOU-3 M11 (C25)", "group": "beidou", "lat": 15.979218129074315, "lon": -160.58121716553654, "alt_km": 21511.6287585848, "timestamp": "2025-12-08T10:52:03.212827+00:00", "meta": {"OBJECT_NAME": "BEIDOU-3 M11 (C25)", "OBJECT_ID": "2018-067B", "EPOCH": "2025-12-07T08:23:01.597056", "MEAN_MOTION": 1.8622716, "ECCENTRICITY": 0.00055888, "INCLINATION": 54.1804, "RA_OF_ASC_NODE": 187.5103, "ARG_OF_PERICENTER": 36.6021, "MEAN_ANOMALY": 323.5051, "EPHEMERIS_TYPE": 0, "CLASSIFICATION_TYPE": "U", "NORAD_CAT_ID": 43603, "ELEMENT_SET_NO": 999, "REV_AT_EPOCH": 4957, "BSTAR": 0, "MEAN_MOTION_DOT": 6e-07, "MEAN_MOTION_DDOT": 0}, "tle": {"line1": "1 43603U 18067B   25341.34932404  .00000060  00000+0  00000+0 0  9996", "line2": "2 43603  54.1804 187.5103 0005588  36.6021 323.5051  1.86227160 49576"}}, "geometry": {"type": "Point", "coordinates": [-160.58121716553654, 15.979218129074315]}}, {"type": "Feature", "properties": {"norad_id": 43622, "name": "BEIDOU-3 M13 (C32)", "group": "beidou", "lat": 38.97616219741431, "lon": 101.38334688697685, "alt_km": 21528.85833731897, "timestamp": "2025-12-08T10:52:03.212839+00:00", "meta": {"OBJECT_NAME": "BEIDOU-3 M13 (C32)", "OBJECT_ID": "2018-072A", "EPOCH": "2025-12-03T13:07:53.541408", "MEAN_MOTION": 1.86230692, "ECCENTRICITY": 0.00056735, "INCLINATION": 56.4512, "RA_OF_ASC_NODE": 69.1249, "ARG_OF_PERICENTER": 298.6305, "MEAN_ANOMALY": 61.3164, "EPHEMERIS_TYPE": 0, "CLASSIFICATION_TYPE": "U", "NORAD_CAT_ID": 43622, "ELEMENT_SET_NO": 999, "REV_AT_EPOCH": 4901, "BSTAR": 0, "MEAN_MOTION_DOT": -5e-07, "MEAN_MOTION_DDOT": 0}, "tle": {"line1": "1 43622U 18072A   25337.54714747 -.00000050  00000+0  00000+0 0  9998", "line2": "2 43622  56.4512  69.1249 0005673 298.6305  61.3164  1.86230692 49019"}}, "geometry": {"type": "Point", "coordinates": [101.38334688697685, 38.97616219741431]}}]}